start=new Date('2023-01-07T00:00:00.000Z').valueOf();
sats=[{"GP_ID":"222344899","MEAN_ANOMALY":"305.9570","ELEMENT_SET_NO":"999","CLASSIFICATION_TYPE":"U","ECCENTRICITY":"0.00017170","EPOCH":"2023-01-06T20:57:25.737984","BSTAR":"-0.00026416000000","OBJECT_NAME":"STARLINK-3804","SEMIMAJOR_AXIS":"6917.911","CENTER_NAME":"EARTH","TLE_LINE1":"1 52270U 22041K   23006.87321456 -.00004489  00000-0 -26416-3 0  9991","MEAN_MOTION_DDOT":"0.0000000000000","MEAN_MOTION_DOT":"-0.00004489","ARG_OF_PERICENTER":"54.1581","MEAN_ELEMENT_THEORY":"SGP4","RCS_SIZE":"LARGE","EPHEMERIS_TYPE":"0","TLE_LINE2":"2 52270  53.2152 266.7710 0001717  54.1581 305.9570 15.08829999 39578","PERIOD":"95.438","LAUNCH_DATE":"2022-04-21","RA_OF_ASC_NODE":"266.7710","REF_FRAME":"TEME","PERIAPSIS":"538.588","TIME_SYSTEM":"UTC","APOAPSIS":"540.964","NORAD_CAT_ID":"52270","MEAN_MOTION":"15.08829999","SITE":"AFETR","OBJECT_TYPE":"PAYLOAD","DECAY_DATE":null,"OBJECT_ID":"2022-041K","INCLINATION":"53.2152","FILE":"3734255","REV_AT_EPOCH":"3957","COUNTRY_CODE":"US"},{"CENTER_NAME":"EARTH","SEMIMAJOR_AXIS":"6917.907","OBJECT_NAME":"STARLINK-3788","BSTAR":"-0.00026364000000","EPOCH":"2023-01-06T19:31:15.852288","ECCENTRICITY":"0.00018030","CLASSIFICATION_TYPE":"U","ELEMENT_SET_NO":"999","MEAN_ANOMALY":"311.2199","GP_ID":"222344147","COUNTRY_CODE":"US","REV_AT_EPOCH":"3956","FILE":"3734255","INCLINATION":"53.2138","OBJECT_ID":"2022-041L","DECAY_DATE":null,"SITE":"AFETR","OBJECT_TYPE":"PAYLOAD","MEAN_MOTION":"15.08831446","NORAD_CAT_ID":"52271","APOAPSIS":"541.019","TIME_SYSTEM":"UTC","PERIAPSIS":"538.524","REF_FRAME":"TEME","RA_OF_ASC_NODE":"267.0373","LAUNCH_DATE":"2022-04-21","PERIOD":"95.438","TLE_LINE2":"2 52271  53.2138 267.0373 0001803  48.8948 311.2199 15.08831446 39561","EPHEMERIS_TYPE":"0","RCS_SIZE":"LARGE","MEAN_ELEMENT_THEORY":"SGP4","ARG_OF_PERICENTER":"48.8948","MEAN_MOTION_DOT":"-0.00004481","MEAN_MOTION_DDOT":"0.0000000000000","TLE_LINE1":"1 52271U 22041L   23006.81337792 -.00004481  00000-0 -26364-3 0  9990"},{"COUNTRY_CODE":"US","REV_AT_EPOCH":"3955","INCLINATION":"53.2179","FILE":"3734255","OBJECT_ID":"2022-041M","MEAN_MOTION":"15.08825996","SITE":"AFETR","OBJECT_TYPE":"PAYLOAD","DECAY_DATE":null,"APOAPSIS":"541.591","NORAD_CAT_ID":"52272","TIME_SYSTEM":"UTC","REF_FRAME":"TEME","PERIAPSIS":"537.985","LAUNCH_DATE":"2022-04-21","PERIOD":"95.438","RA_OF_ASC_NODE":"267.3860","EPHEMERIS_TYPE":"0","TLE_LINE2":"2 52272  53.2179 267.3860 0002606  38.9543 321.1637 15.08825996 39553","RCS_SIZE":"LARGE","MEAN_ELEMENT_THEORY":"SGP4","ARG_OF_PERICENTER":"38.9543","MEAN_MOTION_DDOT":"0.0000000000000","TLE_LINE1":"1 52272U 22041M   23006.73707333 -.00003000  00000-0 -17051-3 0  9993","MEAN_MOTION_DOT":"-0.00003000","CENTER_NAME":"EARTH","SEMIMAJOR_AXIS":"6917.923","OBJECT_NAME":"STARLINK-3781","BSTAR":"-0.00017051000000","EPOCH":"2023-01-06T17:41:23.135712","ECCENTRICITY":"0.00026060","ELEMENT_SET_NO":"999","CLASSIFICATION_TYPE":"U","MEAN_ANOMALY":"321.1637","GP_ID":"222344397"},{"BSTAR":"-0.00036503000000","OBJECT_NAME":"STARLINK-3782","SEMIMAJOR_AXIS":"6917.921","CENTER_NAME":"EARTH","GP_ID":"222344649","MEAN_ANOMALY":"317.9063","CLASSIFICATION_TYPE":"U","ELEMENT_SET_NO":"999","ECCENTRICITY":"0.00022590","EPOCH":"2023-01-06T17:47:59.995104","RA_OF_ASC_NODE":"257.3585","LAUNCH_DATE":"2022-04-21","PERIOD":"95.438","PERIAPSIS":"538.223","REF_FRAME":"TEME","TIME_SYSTEM":"UTC","NORAD_CAT_ID":"52273","APOAPSIS":"541.349","DECAY_DATE":null,"MEAN_MOTION":"15.08826714","SITE":"AFETR","OBJECT_TYPE":"PAYLOAD","OBJECT_ID":"2022-041N","FILE":"3734255","INCLINATION":"53.2175","COUNTRY_CODE":"US","REV_AT_EPOCH":"3969","MEAN_MOTION_DOT":"-0.00006091","TLE_LINE1":"1 52273U 22041N   23006.74166661 -.00006091  00000-0 -36503-3 0  9994","MEAN_MOTION_DDOT":"0.0000000000000","ARG_OF_PERICENTER":"42.2103","MEAN_ELEMENT_THEORY":"SGP4","RCS_SIZE":"LARGE","TLE_LINE2":"2 52273  53.2175 257.3585 0002259  42.2103 317.9063 15.08826714 39697","EPHEMERIS_TYPE":"0"},{"EPOCH":"2023-01-06T20:45:27.906912","ECCENTRICITY":"0.00027540","ELEMENT_SET_NO":"999","CLASSIFICATION_TYPE":"U","MEAN_ANOMALY":"333.4772","GP_ID":"222345398","CENTER_NAME":"EARTH","SEMIMAJOR_AXIS":"6917.904","OBJECT_NAME":"STARLINK-3790","BSTAR":"-0.00014695000000","EPHEMERIS_TYPE":"0","TLE_LINE2":"2 52274  53.2174 266.8062 0002754  26.6362 333.4772 15.08832124 39574","RCS_SIZE":"LARGE","MEAN_ELEMENT_THEORY":"SGP4","ARG_OF_PERICENTER":"26.6362","MEAN_MOTION_DDOT":"0.0000000000000","TLE_LINE1":"1 52274U 22041P   23006.86490633 -.00002626  00000-0 -14695-3 0  9995","MEAN_MOTION_DOT":"-0.00002626","COUNTRY_CODE":"US","REV_AT_EPOCH":"3957","INCLINATION":"53.2174","FILE":"3734255","OBJECT_ID":"2022-041P","MEAN_MOTION":"15.08832124","SITE":"AFETR","OBJECT_TYPE":"PAYLOAD","DECAY_DATE":null,"APOAPSIS":"541.675","NORAD_CAT_ID":"52274","TIME_SYSTEM":"UTC","REF_FRAME":"TEME","PERIAPSIS":"537.864","LAUNCH_DATE":"2022-04-21","PERIOD":"95.438","RA_OF_ASC_NODE":"266.8062"},{"BSTAR":"-0.00015246000000","CENTER_NAME":"EARTH","SEMIMAJOR_AXIS":"6917.890","OBJECT_NAME":"STARLINK-3784","MEAN_ANOMALY":"340.6883","GP_ID":"222343648","EPOCH":"2023-01-06T20:56:03.206112","ECCENTRICITY":"0.00031650","CLASSIFICATION_TYPE":"U","ELEMENT_SET_NO":"999","NORAD_CAT_ID":"52275","APOAPSIS":"541.945","TIME_SYSTEM":"UTC","PERIAPSIS":"537.566","REF_FRAME":"TEME","RA_OF_ASC_NODE":"266.7759","LAUNCH_DATE":"2022-04-21","PERIOD":"95.438","COUNTRY_CODE":"US","REV_AT_EPOCH":"3957","FILE":"3734255","INCLINATION":"53.2162","OBJECT_ID":"2022-041Q","DECAY_DATE":null,"OBJECT_TYPE":"PAYLOAD","SITE":"AFETR","MEAN_MOTION":"15.08836769","MEAN_MOTION_DOT":"-0.00002714","MEAN_MOTION_DDOT":"0.0000000000000","TLE_LINE1":"1 52275U 22041Q   23006.87225933 -.00002714  00000-0 -15246-3 0  9997","TLE_LINE2":"2 52275  53.2162 266.7759 0003165  19.4229 340.6883 15.08836769 39575","EPHEMERIS_TYPE":"0","RCS_SIZE":"LARGE","MEAN_ELEMENT_THEORY":"SGP4","ARG_OF_PERICENTER":"19.4229"},{"OBJECT_ID":"2022-041R","OBJECT_TYPE":"PAYLOAD","SITE":"AFETR","MEAN_MOTION":"15.08819211","DECAY_DATE":null,"COUNTRY_CODE":"US","REV_AT_EPOCH":"3957","INCLINATION":"53.2123","FILE":"3734255","REF_FRAME":"TEME","PERIAPSIS":"538.663","PERIOD":"95.439","LAUNCH_DATE":"2022-04-21","RA_OF_ASC_NODE":"266.8216","APOAPSIS":"540.955","NORAD_CAT_ID":"52276","TIME_SYSTEM":"UTC","MEAN_ELEMENT_THEORY":"SGP4","ARG_OF_PERICENTER":"47.0976","EPHEMERIS_TYPE":"0","TLE_LINE2":"2 52276  53.2123 266.8216 0001657  47.0976 313.0155 15.08819211 39571","RCS_SIZE":"LARGE","MEAN_MOTION_DDOT":"0.0000000000000","TLE_LINE1":"1 52276U 22041R   23006.86121968 -.00001049  00000-0 -47841-4 0  9997","MEAN_MOTION_DOT":"-0.00001049","SEMIMAJOR_AXIS":"6917.944","OBJECT_NAME":"STARLINK-3778","CENTER_NAME":"EARTH","BSTAR":"-0.00004784100000","ECCENTRICITY":"0.00016570","ELEMENT_SET_NO":"999","CLASSIFICATION_TYPE":"U","EPOCH":"2023-01-06T20:40:09.380352","MEAN_ANOMALY":"313.0155","GP_ID":"222343898"},{"MEAN_MOTION_DOT":"0.00008590","TLE_LINE1":"1 52277U 22041S   23006.86857383  .00008590  00000-0  55714-3 0  9998","MEAN_MOTION_DDOT":"0.0000000000000","MEAN_ELEMENT_THEORY":"SGP4","ARG_OF_PERICENTER":"31.2900","TLE_LINE2":"2 52277  53.2165 266.7919 0002524  31.2900 328.8242 15.08839052 39579","EPHEMERIS_TYPE":"0","RCS_SIZE":"LARGE","PERIAPSIS":"538.002","REF_FRAME":"TEME","RA_OF_ASC_NODE":"266.7919","PERIOD":"95.438","LAUNCH_DATE":"2022-04-21","NORAD_CAT_ID":"52277","APOAPSIS":"541.494","TIME_SYSTEM":"UTC","OBJECT_ID":"2022-041S","DECAY_DATE":null,"OBJECT_TYPE":"PAYLOAD","SITE":"AFETR","MEAN_MOTION":"15.08839052","COUNTRY_CODE":"US","REV_AT_EPOCH":"3957","FILE":"3734255","INCLINATION":"53.2165","MEAN_ANOMALY":"328.8242","GP_ID":"222345148","ECCENTRICITY":"0.00025240","CLASSIFICATION_TYPE":"U","ELEMENT_SET_NO":"999","EPOCH":"2023-01-06T20:50:44.778912","BSTAR":"0.00055714000000","SEMIMAJOR_AXIS":"6917.883","OBJECT_NAME":"STARLINK-3787","CENTER_NAME":"EARTH"},{"MEAN_MOTION_DDOT":"0.0000000000000","TLE_LINE1":"1 52278U 22041T   23006.85754311 -.00004243  00000-0 -24873-3 0  9990","MEAN_MOTION_DOT":"-0.00004243","RCS_SIZE":"LARGE","EPHEMERIS_TYPE":"0","TLE_LINE2":"2 52278  53.2167 266.8442 0002285  39.7213 320.3946 15.08827392 39570","ARG_OF_PERICENTER":"39.7213","MEAN_ELEMENT_THEORY":"SGP4","TIME_SYSTEM":"UTC","APOAPSIS":"541.365","NORAD_CAT_ID":"52278","LAUNCH_DATE":"2022-04-21","PERIOD":"95.438","RA_OF_ASC_NODE":"266.8442","REF_FRAME":"TEME","PERIAPSIS":"538.203","INCLINATION":"53.2167","FILE":"3734255","REV_AT_EPOCH":"3957","COUNTRY_CODE":"US","SITE":"AFETR","OBJECT_TYPE":"PAYLOAD","MEAN_MOTION":"15.08827392","DECAY_DATE":null,"OBJECT_ID":"2022-041T","GP_ID":"222344900","MEAN_ANOMALY":"320.3946","EPOCH":"2023-01-06T20:34:51.724704","ELEMENT_SET_NO":"999","CLASSIFICATION_TYPE":"U","ECCENTRICITY":"0.00022850","BSTAR":"-0.00024873000000","CENTER_NAME":"EARTH","OBJECT_NAME":"STARLINK-3780","SEMIMAJOR_AXIS":"6917.919"},{"BSTAR":"0.00122360000000","OBJECT_NAME":"STARLINK-3686","SEMIMAJOR_AXIS":"6911.019","CENTER_NAME":"EARTH","GP_ID":"222344148","MEAN_ANOMALY":"214.0493","CLASSIFICATION_TYPE":"U","ELEMENT_SET_NO":"999","ECCENTRICITY":"0.00023510","EPOCH":"2023-01-06T09:56:28.615776","RA_OF_ASC_NODE":"268.2830","PERIOD":"95.296","LAUNCH_DATE":"2022-04-21","PERIAPSIS":"531.260","REF_FRAME":"TEME","TIME_SYSTEM":"UTC","NORAD_CAT_ID":"52279","APOAPSIS":"534.509","DECAY_DATE":null,"SITE":"AFETR","MEAN_MOTION":"15.11087445","OBJECT_TYPE":"PAYLOAD","OBJECT_ID":"2022-041U","FILE":"3734255","INCLINATION":"53.2190","REV_AT_EPOCH":"3951","COUNTRY_CODE":"US","MEAN_MOTION_DOT":"0.00020483","TLE_LINE1":"1 52279U 22041U   23006.41422009  .00020483  00000-0  12236-2 0  9990","MEAN_MOTION_DDOT":"0.0000000000000","ARG_OF_PERICENTER":"146.0651","MEAN_ELEMENT_THEORY":"SGP4","RCS_SIZE":"LARGE","TLE_LINE2":"2 52279  53.2190 268.2830 0002351 146.0651 214.0493 15.11087445 39517","EPHEMERIS_TYPE":"0"}];
